[{"OBJECT_NAME":"TIANMU-1 16","OBJECT_ID":"2024-004B","EPOCH":"2026-03-09T23:11:35.492064","MEAN_MOTION":15.25874833,"ECCENTRICITY":0.00051977,"INCLINATION":97.4617,"RA_OF_ASC_NODE":254.5267,"ARG_OF_PERICENTER":355.4475,"MEAN_ANOMALY":4.6715,"EPHEMERIS_TYPE":0,"CLASSIFICATION_TYPE":"U","NORAD_CAT_ID":58701,"ELEMENT_SET_NO":999,"REV_AT_EPOCH":12064,"BSTAR":0.00031061517,"MEAN_MOTION_DOT":7.887e-5,"MEAN_MOTION_DDOT":0},{"OBJECT_NAME":"STARLINK-31551","OBJECT_ID":"2024-045P","EPOCH":"2026-03-09T09:59:39.701472","MEAN_MOTION":15.27581342,"ECCENTRICITY":8.034e-5,"INCLINATION":42.9996,"RA_OF_ASC_NODE":90.3041,"ARG_OF_PERICENTER":253.7201,"MEAN_ANOMALY":106.3562,"EPHEMERIS_TYPE":0,"CLASSIFICATION_TYPE":"U","NORAD_CAT_ID":59191,"ELEMENT_SET_NO":999,"REV_AT_EPOCH":11316,"BSTAR":-3.9253497e-5,"MEAN_MOTION_DOT":-1.342e-5,"MEAN_MOTION_DDOT":0}]
